{
"type": "FeatureCollection",
"name": "communities",
"crs": { "type": "name", "properties": { "name": "urn:ogc:def:crs:OGC:1.3:CRS84" } },
"features": [
{ "type": "Feature", "properties": { "id": "node/501333323", "osm_id": 501333323, "name": "Zokoja", "place": "village", "index_right": 2350, "node": 5483014720, "distance_m": 30.722707928281839, "access_status": "route_to_boundary", "isolation_reason": "mapped road route remains to a safe node", "reachable_safe_nodes": 3209 }, "geometry": { "type": "Point", "coordinates": [ 6.7430045, 7.802359 ] } },
{ "type": "Feature", "properties": { "id": "node/501464974", "osm_id": 501464974, "name": "Lokoja", "place": "city", "index_right": 2350, "node": 5483014720, "distance_m": 29.842596543008629, "access_status": "route_to_boundary", "isolation_reason": "mapped road route remains to a safe node", "reachable_safe_nodes": 3209 }, "geometry": { "type": "Point", "coordinates": [ 6.7430005, 7.8023397 ] } },
{ "type": "Feature", "properties": { "id": "node/501485551", "osm_id": 501485551, "name": "Numai", "place": "village", "index_right": 17989, "node": 10264667758, "distance_m": 709.99628105970328, "access_status": "potentially_isolated", "isolation_reason": "no mapped road path remains to a configured safe node", "reachable_safe_nodes": 0 }, "geometry": { "type": "Point", "coordinates": [ 6.766667, 7.816667 ] } },
{ "type": "Feature", "properties": { "id": "node/501514422", "osm_id": 501514422, "name": "Lokoja", "place": "town", "index_right": 2350, "node": 5483014720, "distance_m": 33.686266631449207, "access_status": "route_to_boundary", "isolation_reason": "mapped road route remains to a safe node", "reachable_safe_nodes": 3209 }, "geometry": { "type": "Point", "coordinates": [ 6.7430327, 7.802355 ] } }
]
}
